*******************************************************************************
Ephemeris / WWW_USER Tue Mar 20 15:22:57 2018 Pasadena, USA      / Horizons    
*******************************************************************************
Target body name: Earth-Moon Barycenter (3)       {source: DE431mx}
Center body name: Solar System Barycenter (0)     {source: DE431mx}
Center-site name: BODY CENTER
*******************************************************************************
Start time      : A.D. 2000-Jan-01 00:00:00.0000 TDB
Stop  time      : A.D. 2001-Jan-01 00:00:00.0000 TDB
Step-size       : 7200 minutes
*******************************************************************************
Center geodetic : 0.00000000,0.00000000,0.0000000 {E-lon(deg),Lat(deg),Alt(km)}
Center cylindric: 0.00000000,0.00000000,0.0000000 {E-lon(deg),Dxy(km),Dz(km)}
Center radii    : (undefined)                                                  
Output units    : AU-D                                                         
Output type     : GEOMETRIC cartesian states
Output format   : 2 (position and velocity)
Reference frame : ICRF/J2000.0                                                 
Coordinate systm: Ecliptic and Mean Equinox of Reference Epoch                 
*******************************************************************************
JDTDB
   X     Y     Z
   VX    VY    VZ
*******************************************************************************
$$SOE
2451754.500000000 = A.D. 2000-Jul-29 00:00:00.0000 TDB 
   5.936057264061411E-01 -8.236618305606431E-01  1.817290417297692E-04
   1.361292815133224E-02  1.008691745663346E-02 -1.786157771631002E-07
2451759.500000000 = A.D. 2000-Aug-03 00:00:00.0000 TDB 
   6.594719005720703E-01 -7.703905656321841E-01  1.808293413616274E-04
   1.271774240710711E-02  1.120936217708254E-02 -1.812364197088255E-07
2451764.500000000 = A.D. 2000-Aug-08 00:00:00.0000 TDB 
   7.206300653311255E-01 -7.116969170357009E-01  1.799170086969314E-04
   1.173072600962708E-02  1.225459576148818E-02 -1.836585386881843E-07
2451769.500000000 = A.D. 2000-Aug-13 00:00:00.0000 TDB 
   7.766365983356224E-01 -6.479857111984708E-01  1.789931321428436E-04
   1.065819205746760E-02  1.321518273904284E-02 -1.858579827716991E-07
2451774.500000000 = A.D. 2000-Aug-18 00:00:00.0000 TDB 
   8.270809376587439E-01 -5.796978225573818E-01  1.780587440160291E-04
   9.507048208327555E-03  1.408414677465395E-02 -1.878647843697197E-07
2451779.500000000 = A.D. 2000-Aug-23 00:00:00.0000 TDB 
   8.715884980649400E-01 -5.073077651911306E-01  1.771148621820331E-04
   8.284773038528813E-03  1.485501620958469E-02 -1.896453775284465E-07
2451784.500000000 = A.D. 2000-Aug-28 00:00:00.0000 TDB 
   9.098234563301452E-01 -4.313210490000048E-01  1.761627064473017E-04
   6.999387983304795E-03  1.552187257556523E-02 -1.911796964281016E-07
2451789.500000000 = A.D. 2000-Sep-02 00:00:00.0000 TDB 
   9.414913929724987E-01 -3.522712925890246E-01  1.752034163613621E-04
   5.659427938184378E-03  1.607939862940268E-02 -1.924984714682267E-07
2451794.500000000 = A.D. 2000-Sep-07 00:00:00.0000 TDB 
   9.663417746275960E-01 -2.707171006212105E-01  1.742381505684169E-04
   4.273905777637370E-03  1.652292518249741E-02 -1.935631483057279E-07
2451799.500000000 = A.D. 2000-Sep-12 00:00:00.0000 TDB 
   9.841702404068846E-01 -1.872387015851399E-01  1.732681956008786E-04
   2.852270509314519E-03  1.684848006159484E-02 -1.943821857728934E-07
2451804.500000000 = A.D. 2000-Sep-17 00:00:00.0000 TDB 
   9.948206736816478E-01 -1.024343432395831E-01  1.722946897292190E-04
   1.404362988897733E-03  1.705283528676369E-02 -1.949809173390037E-07
2451809.500000000 = A.D. 2000-Sep-22 00:00:00.0000 TDB 
   9.981870357571261E-01 -1.691645996552418E-02  1.713188208015114E-04
  -5.963590468004143E-05  1.713355152330382E-02 -1.953224839324161E-07
2451814.500000000 = A.D. 2000-Sep-27 00:00:00.0000 TDB 
   9.942149191575292E-01  6.869238037797394E-02  1.703418558800038E-04
  -1.529264786051661E-03  1.708902192816324E-02 -1.954293704752385E-07
2451819.500000000 = A.D. 2000-Oct-02 00:00:00.0000 TDB 
   9.829027950189629E-01  1.537637429598577E-01  1.693648790491568E-04
  -2.993844450862358E-03  1.691851277922235E-02 -1.953219564074555E-07
2451824.500000000 = A.D. 2000-Oct-07 00:00:00.0000 TDB 
   9.643029301623891E-01  2.376677799428432E-01  1.683890479251122E-04
  -4.442548520784816E-03  1.662219800813801E-02 -1.949717461785858E-07
2451829.500000000 = A.D. 2000-Oct-12 00:00:00.0000 TDB 
   9.385219280554311E-01  3.197778477073053E-01  1.674154951673798E-04
  -5.864482045329209E-03  1.620119019461472E-02 -1.944196478319189E-07
2451834.500000000 = A.D. 2000-Oct-17 00:00:00.0000 TDB 
   9.057208695241182E-01  3.994752658295380E-01  1.664451670934723E-04
  -7.248763019772493E-03  1.565756540335917E-02 -1.936759546624563E-07
2451839.500000000 = A.D. 2000-Oct-22 00:00:00.0000 TDB 
   8.661150309205528E-01  4.761541768144964E-01  1.654790994064069E-04
  -8.584610715084496E-03  1.499437857343990E-02 -1.927185783702932E-07
2451844.500000000 = A.D. 2000-Oct-27 00:00:00.0000 TDB 
   8.199731412650847E-01  5.492264627210023E-01  1.645182536682446E-04
  -9.861440792012639E-03  1.421567137100621E-02 -1.915937795286990E-07
2451849.500000000 = A.D. 2000-Nov-01 00:00:00.0000 TDB 
   7.676161610034162E-01  6.181266820295306E-01  1.635634659898860E-04
  -1.106896111704629E-02  1.332647150809496E-02 -1.902868798126613E-07
2451854.500000000 = A.D. 2000-Nov-06 00:00:00.0000 TDB 
   7.094155740563860E-01  6.823169702577291E-01  1.626157071000029E-04
  -1.219727159048843E-02  1.233277874592273E-02 -1.887903601543041E-07
2451859.500000000 = A.D. 2000-Nov-11 00:00:00.0000 TDB 
   6.457911694583639E-01  7.412918428781350E-01  1.616757708115342E-04
  -1.323696730541766E-02  1.124154050669153E-02 -1.871648497574307E-07
2451864.500000000 = A.D. 2000-Nov-16 00:00:00.0000 TDB 
   5.772083131165485E-01  7.945828517115414E-01  1.607442875881368E-04
  -1.417923889513319E-02  1.006061690505757E-02 -1.854027680208202E-07
2451869.500000000 = A.D. 2000-Nov-21 00:00:00.0000 TDB 
   5.041747229301138E-01  8.417630297447831E-01  1.598219613444879E-04
  -1.501597147625516E-02  8.798730701780010E-03 -1.835125675083172E-07
2451874.500000000 = A.D. 2000-Nov-26 00:00:00.0000 TDB 
   4.272367505404789E-01  8.824510524585018E-01  1.589092852439271E-04
  -1.573984214766860E-02  7.465405077003726E-03 -1.815435454275402E-07
2451879.500000000 = A.D. 2000-Dec-01 00:00:00.0000 TDB 
   3.469751940966083E-01  9.163150644760992E-01  1.580067076372010E-04
  -1.634440938229625E-02  6.070891217736690E-03 -1.794687036156587E-07
2451884.500000000 = A.D. 2000-Dec-06 00:00:00.0000 TDB 
   2.640006832711844E-01  9.430761069370381E-01  1.571147337798745E-04
  -1.682419535848421E-02  4.626080846633133E-03 -1.773137033687519E-07
2451889.500000000 = A.D. 2000-Dec-11 00:00:00.0000 TDB 
   1.789486692782615E-01  9.625110781428105E-01  1.562336189294838E-04
  -1.717476081948661E-02  3.142408215551131E-03 -1.751252658690250E-07
2451894.500000000 = A.D. 2000-Dec-16 00:00:00.0000 TDB 
   9.247407091291703E-02  9.744551862905104E-01  1.553635848337035E-04
  -1.739276712693019E-02  1.631744608205848E-03 -1.728790499651009E-07
2451899.500000000 = A.D. 2000-Dec-21 00:00:00.0000 TDB 
   5.245644693935638E-03  9.788038475530938E-01  1.545048496459492E-04
  -1.747602504689559E-02  1.062815508252282E-04 -1.706188738657865E-07
2451904.500000000 = A.D. 2000-Dec-26 00:00:00.0000 TDB 
  -8.205986045653844E-02  9.755139792191246E-01  1.536573669175147E-04
  -1.742353180609115E-02 -1.421592629853911E-03 -1.683732884407825E-07
2451909.500000000 = A.D. 2000-Dec-31 00:00:00.0000 TDB 
  -1.687636944362986E-01  9.646046726550843E-01  1.528211390181267E-04
  -1.723549162594197E-02 -2.939417940757898E-03 -1.661187396454079E-07
